IRIDIUM 159             
1 43578U 18061K   23294.91220164  .00000182  00000+0  57962-4 0  9991
2 43578  86.3913 101.8160 0002115  88.7368 271.4070 14.34216969274453
IRIDIUM 180             
1 43922U 19002A   23294.84193065  .00000533  00000+0  18323-3 0  9998
2 43922  86.4009  38.6943 0002369  95.4500 264.6966 14.34218013250053
IRIDIUM 176             
1 43923U 19002B   23294.80344557  .00001967  00000+0  30799-3 0  9992
2 43923  86.6134  38.7436 0002365  91.5711 268.5777 14.72262737256626
IRIDIUM 168             
1 43924U 19002C   23295.04489545  .00000495  00000+0  16974-3 0  9991
2 43924  86.4011  38.6594 0002328  93.0023 267.1439 14.34218246250061
IRIDIUM 173             
1 43925U 19002D   23294.82290569  .00000562  00000+0  19359-3 0  9998
2 43925  86.4006  38.6808 0002265  92.0858 268.0597 14.34217761250010
IRIDIUM 169             
1 43926U 19002E   23294.92298639  .00000699  00000+0  22193-3 0  9997
2 43926  86.4207  70.2545 0001545 333.3341  26.7777 14.38611938250873
IRIDIUM 172             
1 43927U 19002F   23294.81656003  .00000631  00000+0  21829-3 0  9990
2 43927  86.4005  38.6884 0002224  92.5637 267.5814 14.34218450250023
IRIDIUM 175             
1 43928U 19002G   23295.00122908  .00000993  00000+0  15348-3 0  9995
2 43928  86.1557  25.3320 0002259  94.6037 265.5437 14.72254897256646
